[
    {
        "Altitude(m)": 715644.0326215139,
        "Argument of Periapsis(deg)": 0.0011390121186627068,
        "Eccentricity": 0.0,
        "Inclination(deg)": 45.0,
        "Latitude(deg)": -39.75026259226366,
        "Longitude(deg)": 69.13409939550515,
        "Mean Anomaly(deg)": -64.30117833525183,
        "RAAN(deg)": 224.99892480585416,
        "Satellite Name": "Constellation 1 1008",
        "Satellite Number": 1008,
        "Semi-Major Axis(m)": 7083131.272910544,
        "Time(s)": 19
    },
    {
        "Altitude(m)": 715634.0334888612,
        "Argument of Periapsis(deg)": 0.0011989601249081123,
        "Eccentricity": 0.0,
        "Inclination(deg)": 45.0,
        "Latitude(deg)": -39.72611574619117,
        "Longitude(deg)": 69.2020887950671,
        "Mean Anomaly(deg)": -64.24047719500197,
        "RAAN(deg)": 224.9988682166886,
        "Satellite Name": "Constellation 1 1008",
        "Satellite Number": 1008,
        "Semi-Major Axis(m)": 7083131.272910544,
        "Time(s)": 20
    },
    {
        "Altitude(m)": 715624.0161951177,
        "Argument of Periapsis(deg)": 0.001258908131153518,
        "Eccentricity": 0.0,
        "Inclination(deg)": 45.0,
        "Latitude(deg)": -39.7019240378281,
        "Longitude(deg)": 69.270028001317,
        "Mean Anomaly(deg)": -64.17977605475211,
        "RAAN(deg)": 224.99881162752305,
        "Satellite Name": "Constellation 1 1008",
        "Satellite Number": 1008,
        "Semi-Major Axis(m)": 7083131.272910544,
        "Time(s)": 21
    },
    {
        "Altitude(m)": 715613.9807767845,
        "Argument of Periapsis(deg)": 0.0013188561373989236,
        "Eccentricity": 0.0,
        "Inclination(deg)": 45.0,
        "Latitude(deg)": -39.67768753586653,
        "Longitude(deg)": 69.33791683149641,
        "Mean Anomaly(deg)": -64.11907491450228,
        "RAAN(deg)": 224.99875503835747,
        "Satellite Name": "Constellation 1 1008",
        "Satellite Number": 1008,
        "Semi-Major Axis(m)": 7083131.272910544,
        "Time(s)": 22
    },
    {
        "Altitude(m)": 715603.9272704283,
        "Argument of Periapsis(deg)": 0.0013788041436443293,
        "Eccentricity": 0.0,
        "Inclination(deg)": 45.0,
        "Latitude(deg)": -39.653406308998086,
        "Longitude(deg)": 69.40575560756913,
        "Mean Anomaly(deg)": -64.05837377425229,
        "RAAN(deg)": 224.99869844919192,
        "Satellite Name": "Constellation 1 1008",
        "Satellite Number": 1008,
        "Semi-Major Axis(m)": 7083131.272910544,
        "Time(s)": 23
    },
    {
        "Altitude(m)": 715593.8557126785,
        "Argument of Periapsis(deg)": 0.001438752149889735,
        "Eccentricity": 0.0,
        "Inclination(deg)": 45.0,
        "Latitude(deg)": -39.62908042591441,
        "Longitude(deg)": 69.47354414763852,
        "Mean Anomaly(deg)": -63.99767263400245,
        "RAAN(deg)": 224.9986418600263,
        "Satellite Name": "Constellation 1 1008",
        "Satellite Number": 1008,
        "Semi-Major Axis(m)": 7083131.272910544,
        "Time(s)": 24
    },
    {
        "Altitude(m)": 715583.7661402271,
        "Argument of Periapsis(deg)": 0.0014987001561351404,
        "Eccentricity": 0.0,
        "Inclination(deg)": 45.0,
        "Latitude(deg)": -39.60470995530559,
        "Longitude(deg)": 69.54128243833443,
        "Mean Anomaly(deg)": -63.93697149375249,
        "RAAN(deg)": 224.99858527086076,
        "Satellite Name": "Constellation 1 1008",
        "Satellite Number": 1008,
        "Semi-Major Axis(m)": 7083131.272910544,
        "Time(s)": 25
    },
    {
        "Altitude(m)": 715573.6585898319,
        "Argument of Periapsis(deg)": 0.001558648162380546,
        "Eccentricity": 0.0,
        "Inclination(deg)": 45.0,
        "Latitude(deg)": -39.580294965860176,
        "Longitude(deg)": 69.60897046671391,
        "Mean Anomaly(deg)": -63.876270353502626,
        "RAAN(deg)": 224.99852868169518,
        "Satellite Name": "Constellation 1 1008",
        "Satellite Number": 1008,
        "Semi-Major Axis(m)": 7083131.272910544,
        "Time(s)": 26
    },
    {
        "Altitude(m)": 715563.5330983142,
        "Argument of Periapsis(deg)": 0.0016185961686259519,
        "Eccentricity": 0.0,
        "Inclination(deg)": 45.0,
        "Latitude(deg)": -39.5558355262642,
        "Longitude(deg)": 69.67660822026079,
        "Mean Anomaly(deg)": -63.815569213252665,
        "RAAN(deg)": 224.99847209252962,
        "Satellite Name": "Constellation 1 1008",
        "Satellite Number": 1008,
        "Semi-Major Axis(m)": 7083131.272910544,
        "Time(s)": 27
    },
    {
        "Altitude(m)": 715553.3897025448,
        "Argument of Periapsis(deg)": 0.0016785441748713573,
        "Eccentricity": 0.0,
        "Inclination(deg)": 45.0,
        "Latitude(deg)": -39.53133170520096,
        "Longitude(deg)": 69.74419568688347,
        "Mean Anomaly(deg)": -63.75486807300278,
        "RAAN(deg)": 224.99841550336401,
        "Satellite Name": "Constellation 1 1008",
        "Satellite Number": 1008,
        "Semi-Major Axis(m)": 7083131.272910544,
        "Time(s)": 28
    },
    {
        "Altitude(m)": 715543.2284394772,
        "Argument of Periapsis(deg)": 0.001738492181116763,
        "Eccentricity": 0.0,
        "Inclination(deg)": 45.0,
        "Latitude(deg)": -39.50678357135012,
        "Longitude(deg)": 69.81173285491427,
        "Mean Anomaly(deg)": -63.69416693275295,
        "RAAN(deg)": 224.99835891419846,
        "Satellite Name": "Constellation 1 1008",
        "Satellite Number": 1008,
        "Semi-Major Axis(m)": 7083131.272910544,
        "Time(s)": 29
    },
    {
        "Altitude(m)": 715533.0493461159,
        "Argument of Periapsis(deg)": 0.0017984401873621684,
        "Eccentricity": 0.0,
        "Inclination(deg)": 45.0,
        "Latitude(deg)": -39.482191193387415,
        "Longitude(deg)": 69.87921954501094,
        "Mean Anomaly(deg)": -63.63346579250298,
        "RAAN(deg)": 224.9983023250329,
        "Satellite Name": "Constellation 1 1008",
        "Satellite Number": 1008,
        "Semi-Major Axis(m)": 7083131.272910544,
        "Time(s)": 30
    },
    {
        "Altitude(m)": 715522.852459527,
        "Argument of Periapsis(deg)": 0.0018583881936075745,
        "Eccentricity": 0.0,
        "Inclination(deg)": 45.0,
        "Latitude(deg)": -39.457554639983705,
        "Longitude(deg)": 69.94665608254233,
        "Mean Anomaly(deg)": -63.57276465225312,
        "RAAN(deg)": 224.99824573586733,
        "Satellite Name": "Constellation 1 1008",
        "Satellite Number": 1008,
        "Semi-Major Axis(m)": 7083131.272910544,
        "Time(s)": 31
    },
    {
        "Altitude(m)": 715512.6378168468,
        "Argument of Periapsis(deg)": 0.0019183361998529795,
        "Eccentricity": 0.0,
        "Inclination(deg)": 45.0,
        "Latitude(deg)": -39.4328739798049,
        "Longitude(deg)": 70.0140422890066,
        "Mean Anomaly(deg)": -63.51206351200326,
        "RAAN(deg)": 224.99818914670178,
        "Satellite Name": "Constellation 1 1008",
        "Satellite Number": 1008,
        "Semi-Major Axis(m)": 7083131.272910544,
        "Time(s)": 32
    },
    {
        "Altitude(m)": 715502.4054552618,
        "Argument of Periapsis(deg)": 0.0019782842060983856,
        "Eccentricity": 0.0,
        "Inclination(deg)": 45.0,
        "Latitude(deg)": -39.40814928151108,
        "Longitude(deg)": 70.08137815441687,
        "Mean Anomaly(deg)": -63.45136237175332,
        "RAAN(deg)": 224.99813255753622,
        "Satellite Name": "Constellation 1 1008",
        "Satellite Number": 1008,
        "Semi-Major Axis(m)": 7083131.272910544,
        "Time(s)": 33
    },
    {
        "Altitude(m)": 715492.1554120309,
        "Argument of Periapsis(deg)": 0.0020382322123437906,
        "Eccentricity": 0.0,
        "Inclination(deg)": 45.0,
        "Latitude(deg)": -39.383380613756046,
        "Longitude(deg)": 70.14866366920273,
        "Mean Anomaly(deg)": -63.39066123150344,
        "RAAN(deg)": 224.9980759683706,
        "Satellite Name": "Constellation 1 1008",
        "Satellite Number": 1008,
        "Semi-Major Axis(m)": 7083131.272910544,
        "Time(s)": 34
    },
    {
        "Altitude(m)": 715481.8877244721,
        "Argument of Periapsis(deg)": 0.002098180218589197,
        "Eccentricity": 0.0,
        "Inclination(deg)": 45.0,
        "Latitude(deg)": -39.35856804518661,
        "Longitude(deg)": 70.2158988242095,
        "Mean Anomaly(deg)": -63.329960091253504,
        "RAAN(deg)": 224.99801937920506,
        "Satellite Name": "Constellation 1 1008",
        "Satellite Number": 1008,
        "Semi-Major Axis(m)": 7083131.272910544,
        "Time(s)": 35
    },
    {
        "Altitude(m)": 715471.6024299632,
        "Argument of Periapsis(deg)": 0.002158128224834602,
        "Eccentricity": 0.0,
        "Inclination(deg)": 45.0,
        "Latitude(deg)": -39.3337116444423,
        "Longitude(deg)": 70.28308361069608,
        "Mean Anomaly(deg)": -63.26925895100361,
        "RAAN(deg)": 224.99796279003948,
        "Satellite Name": "Constellation 1 1008",
        "Satellite Number": 1008,
        "Semi-Major Axis(m)": 7083131.272910544,
        "Time(s)": 36
    },
    {
        "Altitude(m)": 715461.299565941,
        "Argument of Periapsis(deg)": 0.002218076231080008,
        "Eccentricity": 0.0,
        "Inclination(deg)": 45.0,
        "Latitude(deg)": -39.30881148015468,
        "Longitude(deg)": 70.3502178522377,
        "Mean Anomaly(deg)": -63.208557810753646,
        "RAAN(deg)": 224.99790620087393,
        "Satellite Name": "Constellation 1 1008",
        "Satellite Number": 1008,
        "Semi-Major Axis(m)": 7083131.272910544,
        "Time(s)": 37
    }
]